OBJECT_NAME,OBJECT_ID,EPOCH,MEAN_MOTION,ECCENTRICITY,INCLINATION,RA_OF_ASC_NODE,ARG_OF_PERICENTER,MEAN_ANOMALY,EPHEMERIS_TYPE,CLASSIFICATION_TYPE,NORAD_CAT_ID,ELEMENT_SET_NO,REV_AT_EPOCH,BSTAR,MEAN_MOTION_DOT,MEAN_MOTION_DDOT
YAOGAN-2,2007-019A,2026-07-15T11:59:46.672800,14.82726536,.0020537,98.2613,58.0296,178.6103,181.5170,0,U,31490,999,3181,.61222724E-4,.438E-5,0
GLOBALSTAR M069,2007-020C,2026-07-15T22:37:09.254208,12.23472242,.000164,52.0010,170.7368,212.0895,183.4853,0,U,31573,999,88232,-.21601392E-3,-.116E-5,0
GLOBALSTAR M072,2007-020D,2026-07-15T22:23:12.936768,11.91658840,.00016556,51.9949,23.7168,36.9818,140.9534,0,U,31574,999,87840,.17644735E-3,-.71E-6,0
COSMO-SKYMED 1,2007-023A,2026-07-15T22:34:21.488736,14.97221418,.00014911,97.8846,29.0397,103.0882,257.0506,0,U,31598,999,3409,.12600194E-3,.1398E-4,0
TERRASAR-X,2007-026A,2026-07-07T11:29:59.023968,15.19153986,.0001878,97.4461,195.8972,86.9540,273.1909,0,U,31698,999,5630,.14624E-4,.24E-5,0
COSMOS 2428,2007-029A,2026-07-15T12:47:17.085696,14.12934606,.00072036,70.9381,294.9624,80.5752,279.6183,0,U,31792,999,98215,.15641268E-3,.244E-5,0
SAR-LUPE 2,2007-030A,2026-07-15T23:17:40.619328,15.53659119,.00048825,98.1062,305.0693,199.2835,160.8232,0,U,31797,999,6140,.24872271E-3,.15784E-3,0
WORLDVIEW-1 (WV-1),2007-041A,2026-07-15T21:52:26.321664,15.24563308,.00015937,97.3907,316.2522,202.9820,157.1347,0,U,32060,999,4725,.1327535E-3,.3198E-4,0
INTELSAT 11 (IS-11),2007-044B,2026-07-15T21:55:13.346688,0.99052408,.00042262,3.6382,78.3202,100.3877,83.2951,0,U,32253,999,6873,0,-.184E-5,0
WGS F1 (USA 195),2007-046A,2026-07-15T11:42:38.570688,1.00268219,.00003518,0.0161,62.8125,184.9075,178.7651,0,U,32258,999,5261,0,-.277E-5,0
NAVSTAR 60 (USA 196),2007-047A,2026-07-14T15:32:58.928064,2.00553904,.0167775,54.1153,78.9337,87.9759,274.0038,0,U,32260,999,13736,0,-.33E-6,0
GLOBALSTAR M066,2007-048C,2026-07-15T15:51:02.315808,12.30389489,.00055941,51.9609,336.1749,102.7371,269.9817,0,U,32265,999,86373,.36375337E-3,-.52E-6,0
COSMOS 2433 [GLONASS-M],2007-052A,2026-07-14T14:26:37.978944,2.13104145,.0003476,65.5599,315.0115,203.4693,156.5222,0,U,32275,999,14564,0,-.63E-6,0
COSMOS 2432 [GLONASS-M],2007-052B,2026-07-14T14:42:51.819264,2.13103094,.0007406,65.5760,315.1395,322.2973,350.1210,0,U,32276,999,14566,0,-.64E-6,0
YAOGAN-3,2007-055A,2026-07-15T23:42:45.876672,14.90885941,.00016446,97.8145,226.5811,78.3188,281.8215,0,U,32289,999,1016,.12779315E-3,.1204E-4,0
SKYNET 5B,2007-056B,2026-07-15T22:02:34.458432,1.00275022,.00037276,5.3224,73.1589,44.5124,171.8467,0,U,32294,999,6848,0,.127E-5,0
ASTRA 4A,2007-057A,2026-07-15T20:14:08.502144,1.00271521,.00023229,0.0394,286.3593,193.8728,121.7725,0,U,32299,999,5193,0,.22E-6,0
COSMO-SKYMED 2,2007-059A,2026-07-15T22:05:34.035648,14.82150789,.00014581,97.8894,20.1028,94.0682,266.0697,0,U,32376,999,626,.23823659E-4,.137E-5,0
RADARSAT-2,2007-061A,2026-07-16T00:08:16.963296,14.29982892,.00012965,98.5777,203.5266,84.2105,275.9225,0,U,32382,999,97007,-.36693826E-4,-.138E-5,0
NAVSTAR 61 (USA 199),2007-062A,2026-07-14T22:49:13.318176,2.00561560,.0036056,55.0097,273.0354,167.4938,179.2057,0,U,32384,999,13606,0,-.11E-6,0
HORIZONS-2,2007-063B,2026-07-15T22:35:41.724096,1.00269034,.00035689,2.6743,80.2713,20.8088,97.7995,0,U,32388,999,6810,0,-.265E-5,0
COSMOS 2434 [GLONASS-M],2007-065A,2026-07-15T09:30:25.207776,2.13101170,.00012762,64.3200,190.9641,327.5918,171.4568,0,U,32393,999,14437,0,.54E-6,0
COSMOS 2436 [GLONASS-M],2007-065C,2026-07-15T04:32:36.170592,2.13099957,.00173142,64.3286,191.0436,353.5207,119.0574,0,U,32395,999,14432,0,.56E-6,0
THURAYA-3,2008-001A,2026-07-15T17:42:38.657952,1.00272007,.00021404,6.0368,35.8233,77.6670,149.4404,0,U,32404,999,6777,0,-.3E-7,0
THOR 5,2008-006A,2026-07-15T21:55:13.346688,1.00271529,.00023678,0.0302,228.9509,254.3592,138.4842,0,U,32487,999,6760,0,-.2E-6,0
AMC-14,2008-011A,2026-07-15T12:02:14.658720,1.00420371,.00396043,24.0428,20.1781,8.4392,164.2123,0,U,32708,999,6845,0,-.191E-5,0
NAVSTAR 62 (USA 201),2008-012A,2026-07-15T01:19:25.743648,2.00573098,.02116717,54.5001,148.8115,248.1491,109.5471,0,U,32711,999,13431,0,.9E-7,0
DIRECTV 11,2008-013A,2026-07-15T12:14:38.600736,1.00271599,.00000802,0.0353,223.2222,348.5472,166.0602,0,U,32729,999,4587,0,-.136E-5,0
ICO G1,2008-016A,2026-07-15T14:38:13.117056,1.00272347,.00023565,5.5256,36.0310,66.6258,317.4954,0,U,32763,999,6683,0,-.184E-5,0
VINASAT-1,2008-018A,2026-07-15T22:33:01.539360,1.00270247,.00015523,0.0496,267.7660,225.1338,271.0663,0,U,32767,999,6687,0,-.339E-5,0
STAR ONE C2,2008-018B,2026-07-15T21:36:52.549344,1.00270623,.00027749,1.3117,82.1887,49.2884,61.4735,0,U,32768,999,6694,0,-.288E-5,0
CARTOSAT-2A,2008-021A,2026-07-15T22:19:06.588768,14.79275866,.00124808,97.7620,244.6553,24.9245,335.2567,0,U,32783,999,98305,-.6466071E-5,-.98E-6,0
CUTE-1.7+APD II (CO-65),2008-021C,2026-07-15T22:48:06.688224,15.09705410,.00069476,97.8294,178.9751,296.4052,63.6463,0,U,32785,999,98953,.16607088E-3,.261E-4,0
CANX-2,2008-021H,2026-07-15T22:19:34.439808,15.05808719,.00086455,97.8657,177.2735,315.3447,44.7082,0,U,32790,999,98913,.10494135E-3,.1457E-4,0
SEEDS II (CO-66),2008-021J,2026-07-15T23:33:57.844800,15.33682976,.00031554,97.7522,196.2767,154.4118,205.7280,0,U,32791,999,99170,.30950416E-3,.9999E-4,0
AMOS-3,2008-022A,2026-07-15T22:12:48.477312,1.00488484,.00030398,0.5274,85.7952,84.3153,157.6805,0,U,32794,999,8262,0,-.11E-6,0
GALAXY 18 (G-18),2008-024A,2026-07-15T21:20:24.129024,1.00271674,.00028899,0.0149,64.7677,63.3023,2.7519,0,U,32951,999,4614,0,.15E-6,0
YUBILEINY (RS30),2008-025A,2026-07-15T21:49:50.638368,12.43180562,.00186048,82.5059,337.5718,247.3135,112.5978,0,U,32953,999,82326,-.3013769E-3,-.32E-6,0
COSMOS 2437,2008-025B,2026-07-15T22:59:10.061376,12.42759829,.00195644,82.5042,339.5784,266.2147,188.1867,0,U,32954,999,82294,-.33750803E-4,.5E-7,0
COSMOS 2438,2008-025C,2026-07-15T22:07:29.210304,12.43369737,.00204669,82.5045,334.9412,239.9558,119.9492,0,U,32955,999,82340,-.13752684E-3,-.9E-7,0
COSMOS 2439,2008-025D,2026-07-15T23:38:37.728960,12.43071096,.00199816,82.5092,339.8920,250.9600,108.9315,0,U,32956,999,82329,-.13387903E-4,.8E-7,0
FENGYUN 3A,2008-026A,2026-07-15T10:51:04.601376,14.19576552,.00096614,98.6886,136.7574,51.1669,309.0369,0,U,32958,999,93941,.3210857E-4,.24E-6,0
ZHONGXING-9,2008-028A,2026-07-15T22:21:47.615040,1.00269063,.00032394,0.8399,84.9394,28.4174,248.2121,0,U,33051,999,6632,0,-.259E-5,0
FGRST (GLAST),2008-029A,2026-07-15T18:37:14.285856,15.24078577,.00077746,25.5829,5.9555,306.4687,53.5135,0,U,33053,999,5,.65298244E-4,.1968E-4,0
SKYNET 5C,2008-030A,2026-07-15T21:50:21.313824,1.00272280,.0004132,3.8604,76.6981,46.5439,120.2976,0,U,33055,999,6624,0,-.152E-5,0
TURKSAT 3A,2008-030B,2026-07-15T22:07:26.491296,1.00270674,.00049006,0.0368,75.0040,20.7493,211.8368,0,U,33056,999,5264,0,.136E-5,0
ECHOSTAR 11,2008-035A,2026-07-15T21:24:08.769888,1.00270928,.00022161,1.0775,83.8473,20.6491,40.4619,0,U,33207,999,5150,0,-.69E-6,0
SUPERBIRD-C2,2008-038A,2026-07-15T22:34:08.931360,1.00272514,.00061832,2.4332,80.9040,38.1974,289.2114,0,U,33274,999,10601,0,-.318E-5,0
INMARSAT 4-F3,2008-039A,2026-07-15T16:19:30.577728,1.00271599,.0002739,4.3165,31.6911,88.7708,319.9468,0,U,33278,999,4683,0,-.152E-5,0
HUANJING 1A (HJ-1A),2008-041A,2026-07-15T22:58:24.239136,14.84048210,.00202542,97.6691,181.6860,47.2545,313.0370,0,U,33320,999,96267,.14653493E-4,.71E-6,0
HUANJING 1B (HJ-1B),2008-041B,2026-07-15T22:32:54.141792,14.83368034,.00379861,97.6528,184.7532,88.9191,271.6375,0,U,33321,999,96267,.11503298E-3,.903E-5,0
GEOEYE 1,2008-042A,2026-07-15T21:54:22.195296,14.64649697,.00038966,98.1327,270.5002,344.3508,15.7574,0,U,33331,999,95435,.42470507E-4,.178E-5,0
NIMIQ 4,2008-044A,2026-07-15T21:32:00.515616,1.00271613,.00019339,0.0125,28.1117,71.9604,74.6674,0,U,33373,999,6527,0,-.231E-5,0
GALAXY 19 (G-19),2008-045A,2026-07-15T21:27:45.923328,1.00270984,.00023549,0.0554,246.8504,238.0585,33.7689,0,U,33376,999,6519,0,-.149E-5,0
THEOS,2008-049A,2026-07-15T22:13:40.108224,14.20136711,.00010962,98.5560,253.2742,88.0226,272.1076,0,U,33396,999,92204,.55722519E-4,.76E-6,0
SHIJIAN-6 03A (SJ-6 03A),2008-053A,2026-07-15T22:25:02.807328,15.17420655,.00093988,97.8394,231.2567,273.2950,86.7207,0,U,33408,999,96732,.11260283E-3,.218E-4,0
SHIJIAN-6 03B (SJ-6 03B),2008-053B,2026-07-15T23:13:11.589600,15.04379957,.00177477,97.8567,217.3365,308.0566,51.9058,0,U,33409,999,96707,.14395199E-4,.136E-5,0
COSMO-SKYMED 3,2008-054A,2026-07-15T21:25:56.286048,15.07118078,.00158207,97.8245,55.9385,164.3313,195.8407,0,U,33412,999,96126,.17589357E-3,.2583E-4,0
SHIYAN-3 (SY-3),2008-056A,2026-07-15T22:34:20.079552,14.30810706,.0014569,98.6059,223.2013,53.2044,307.0473,0,U,33433,999,92291,.33891393E-4,.45E-6,0
CHUANGXIN 1-02 (CX-1-02),2008-056B,2026-07-15T23:34:12.645120,14.30158529,.00153621,98.6124,222.9604,58.2517,302.0160,0,U,33434,999,92273,.16132472E-4,-.2E-7,0
ASTRA 1M,2008-057A,2026-07-15T22:00:57.113280,1.00269854,.00044673,0.3684,82.7777,41.6678,158.9197,0,U,33436,999,4602,0,.11E-5,0
YAOGAN-4,2008-061A,2026-07-15T18:29:58.654464,14.83251950,.00137609,97.9304,130.0710,343.7681,16.3090,0,U,33446,999,94990,.61758672E-4,.451E-5,0
EUTELSAT HOTBIRD 13C,2008-065A,2026-07-15T21:41:07.200384,1.00270509,.00033963,3.0222,78.8498,37.6518,92.2088,0,U,33459,999,4763,0,-.295E-5,0
GOSAT (IBUKI),2009-002A,2026-07-15T21:52:10.964928,14.67540117,.0001143,98.0914,307.6357,88.4019,271.7317,0,U,33492,999,93567,.58850776E-4,.286E-5,0
STARS (KUKAI),2009-002G,2026-07-15T20:22:48.155808,14.95927807,.00098184,98.1554,145.3329,77.8702,282.3617,0,U,33498,999,94276,.15465744E-3,.1669E-4,0
KKS-1 (KISEKI),2009-002H,2026-07-15T20:40:42.068064,14.83190100,.00074874,98.1173,119.7581,186.6441,173.4674,0,U,33499,999,94044,.78580678E-4,.586E-5,0
EXPRESS-AM44,2009-007A,2026-07-15T21:52:21.122112,1.00271110,.00036207,3.5347,78.0386,31.5947,141.1778,0,U,33595,999,5257,0,-.102E-5,0
